start=new Date('2023-03-29T00:00:00.000Z').valueOf();
sats=[{"ARG_OF_PERICENTER":"54.5132","BSTAR":"0.00187820000000","CLASSIFICATION_TYPE":"U","PERIOD":"95.587","FILE":"3873921","RA_OF_ASC_NODE":"266.1725","EPHEMERIS_TYPE":"0","NORAD_CAT_ID":"48666","INCLINATION":"53.0517","SITE":"AFETR","ELEMENT_SET_NO":"999","EPOCH":"2023-03-28T20:37:17.560992","LAUNCH_DATE":"2021-05-26","APOAPSIS":"547.699","GP_ID":"229065648","RCS_SIZE":"LARGE","MEAN_MOTION_DDOT":"0.0000000000000","MEAN_ELEMENT_THEORY":"SGP4","DECAY_DATE":null,"CENTER_NAME":"EARTH","REF_FRAME":"TEME","TLE_LINE1":"1 48666U 21044AE  23087.85923103  .00027861  00000-0  18782-2 0  9994","MEAN_MOTION_DOT":"0.00027861","COUNTRY_CODE":"US","OBJECT_TYPE":"PAYLOAD","TIME_SYSTEM":"UTC","SEMIMAJOR_AXIS":"6925.121","OBJECT_NAME":"STARLINK-2666","MEAN_ANOMALY":"305.5953","ECCENTRICITY":"0.00010300","TLE_LINE2":"2 48666  53.0517 266.1725 0001030  54.5132 305.5953 15.06474249101538","OBJECT_ID":"2021-044AE","MEAN_MOTION":"15.06474249","REV_AT_EPOCH":"10153","PERIAPSIS":"546.273"},{"TLE_LINE2":"2 48667  53.0520 266.1299 0001111  83.1012 277.0103 15.06456879101533","MEAN_MOTION":"15.06456879","REV_AT_EPOCH":"10153","PERIAPSIS":"546.270","OBJECT_ID":"2021-044AF","TIME_SYSTEM":"UTC","COUNTRY_CODE":"US","OBJECT_TYPE":"PAYLOAD","MEAN_MOTION_DOT":"0.00022669","SEMIMAJOR_AXIS":"6925.174","TLE_LINE1":"1 48667U 21044AF  23087.76334558  .00022669  00000-0  15335-2 0  9997","ECCENTRICITY":"0.00011110","OBJECT_NAME":"STARLINK-2735","MEAN_ANOMALY":"277.0103","MEAN_MOTION_DDOT":"0.0000000000000","DECAY_DATE":null,"MEAN_ELEMENT_THEORY":"SGP4","LAUNCH_DATE":"2021-05-26","RCS_SIZE":"LARGE","APOAPSIS":"547.809","GP_ID":"229066377","REF_FRAME":"TEME","CENTER_NAME":"EARTH","FILE":"3873921","PERIOD":"95.589","RA_OF_ASC_NODE":"266.1299","ARG_OF_PERICENTER":"83.1012","CLASSIFICATION_TYPE":"U","BSTAR":"0.00153350000000","SITE":"AFETR","ELEMENT_SET_NO":"999","EPOCH":"2023-03-28T18:19:13.058112","EPHEMERIS_TYPE":"0","NORAD_CAT_ID":"48667","INCLINATION":"53.0520"},{"ECCENTRICITY":"0.00012780","OBJECT_NAME":"STARLINK-2738","MEAN_ANOMALY":"315.1359","TIME_SYSTEM":"UTC","COUNTRY_CODE":"US","MEAN_MOTION_DOT":"0.00016201","OBJECT_TYPE":"PAYLOAD","SEMIMAJOR_AXIS":"6925.316","TLE_LINE1":"1 48668U 21044AG  23087.75968003  .00016201  00000-0  11037-2 0  9995","MEAN_MOTION":"15.06410501","REV_AT_EPOCH":"10153","PERIAPSIS":"546.296","OBJECT_ID":"2021-044AG","TLE_LINE2":"2 48668  53.0543 266.1485 0001278  44.9733 315.1359 15.06410501101534","SITE":"AFETR","ELEMENT_SET_NO":"999","EPOCH":"2023-03-28T18:13:56.354592","EPHEMERIS_TYPE":"0","NORAD_CAT_ID":"48668","INCLINATION":"53.0543","FILE":"3873921","PERIOD":"95.591","RA_OF_ASC_NODE":"266.1485","ARG_OF_PERICENTER":"44.9733","BSTAR":"0.00110370000000","CLASSIFICATION_TYPE":"U","REF_FRAME":"TEME","CENTER_NAME":"EARTH","MEAN_MOTION_DDOT":"0.0000000000000","DECAY_DATE":null,"MEAN_ELEMENT_THEORY":"SGP4","LAUNCH_DATE":"2021-05-26","RCS_SIZE":"LARGE","APOAPSIS":"548.066","GP_ID":"229065147"},{"BSTAR":"0.00187910000000","CLASSIFICATION_TYPE":"U","ARG_OF_PERICENTER":"85.0582","RA_OF_ASC_NODE":"265.2681","PERIOD":"95.590","FILE":"3873872","NORAD_CAT_ID":"48669","INCLINATION":"53.0532","EPHEMERIS_TYPE":"0","EPOCH":"2023-03-28T22:55:11.950752","SITE":"AFETR","ELEMENT_SET_NO":"999","GP_ID":"229042771","APOAPSIS":"547.678","RCS_SIZE":"LARGE","LAUNCH_DATE":"2021-05-26","MEAN_ELEMENT_THEORY":"SGP4","DECAY_DATE":null,"MEAN_MOTION_DDOT":"0.0000000000000","REF_FRAME":"TEME","CENTER_NAME":"EARTH","TLE_LINE1":"1 48669U 21044AH  23087.95499943  .00027849  00000-0  18791-2 0  9994","SEMIMAJOR_AXIS":"6925.226","MEAN_MOTION_DOT":"0.00027849","COUNTRY_CODE":"US","OBJECT_TYPE":"PAYLOAD","TIME_SYSTEM":"UTC","MEAN_ANOMALY":"275.0504","OBJECT_NAME":"STARLINK-2707","ECCENTRICITY":"0.00008470","TLE_LINE2":"2 48669  53.0532 265.2681 0000847  85.0582 275.0504 15.06440009102397","OBJECT_ID":"2021-044AH","PERIAPSIS":"546.504","REV_AT_EPOCH":"10239","MEAN_MOTION":"15.06440009"},{"MEAN_ANOMALY":"300.4729","OBJECT_NAME":"STARLINK-2763","ECCENTRICITY":"0.00009540","TLE_LINE1":"1 48670U 21044AJ  23087.88498278  .00031977  00000-0  21494-2 0  9999","SEMIMAJOR_AXIS":"6925.002","TIME_SYSTEM":"UTC","COUNTRY_CODE":"US","MEAN_MOTION_DOT":"0.00031977","OBJECT_TYPE":"PAYLOAD","OBJECT_ID":"2021-044AJ","PERIAPSIS":"546.207","REV_AT_EPOCH":"10154","MEAN_MOTION":"15.06512962","TLE_LINE2":"2 48670  53.0529 265.5835 0000954  59.6354 300.4729 15.06512962101548","NORAD_CAT_ID":"48670","INCLINATION":"53.0529","EPHEMERIS_TYPE":"0","EPOCH":"2023-03-28T21:14:22.512192","ELEMENT_SET_NO":"999","SITE":"AFETR","CLASSIFICATION_TYPE":"U","BSTAR":"0.00214940000000","ARG_OF_PERICENTER":"59.6354","RA_OF_ASC_NODE":"265.5835","FILE":"3873921","PERIOD":"95.585","CENTER_NAME":"EARTH","REF_FRAME":"TEME","RCS_SIZE":"LARGE","APOAPSIS":"547.528","GP_ID":"229066149","LAUNCH_DATE":"2021-05-26","DECAY_DATE":null,"MEAN_ELEMENT_THEORY":"SGP4","MEAN_MOTION_DDOT":"0.0000000000000"},{"OBJECT_ID":"2021-044AK","MEAN_MOTION":"15.06440868","REV_AT_EPOCH":"10154","PERIAPSIS":"546.159","TLE_LINE2":"2 48671  53.0512 265.6010 0001342  63.8149 296.2977 15.06440868101540","OBJECT_NAME":"STARLINK-2745","MEAN_ANOMALY":"296.2977","ECCENTRICITY":"0.00013420","TLE_LINE1":"1 48671U 21044AK  23087.88128198  .00028486  00000-0  19214-2 0  9999","MEAN_MOTION_DOT":"0.00028486","COUNTRY_CODE":"US","OBJECT_TYPE":"PAYLOAD","TIME_SYSTEM":"UTC","SEMIMAJOR_AXIS":"6925.223","REF_FRAME":"TEME","CENTER_NAME":"EARTH","LAUNCH_DATE":"2021-05-26","APOAPSIS":"548.018","GP_ID":"229065877","RCS_SIZE":"LARGE","MEAN_MOTION_DDOT":"0.0000000000000","MEAN_ELEMENT_THEORY":"SGP4","DECAY_DATE":null,"EPHEMERIS_TYPE":"0","NORAD_CAT_ID":"48671","INCLINATION":"53.0512","SITE":"AFETR","ELEMENT_SET_NO":"999","EPOCH":"2023-03-28T21:09:02.763072","ARG_OF_PERICENTER":"63.8149","CLASSIFICATION_TYPE":"U","BSTAR":"0.00192140000000","PERIOD":"95.590","FILE":"3873921","RA_OF_ASC_NODE":"265.6010"},{"FILE":"3873921","PERIOD":"95.588","RA_OF_ASC_NODE":"265.9096","ARG_OF_PERICENTER":"81.1010","CLASSIFICATION_TYPE":"U","BSTAR":"0.00197590000000","ELEMENT_SET_NO":"999","SITE":"AFETR","EPOCH":"2023-03-28T19:28:12.578016","EPHEMERIS_TYPE":"0","NORAD_CAT_ID":"48672","INCLINATION":"53.0527","MEAN_MOTION_DDOT":"0.0000000000000","DECAY_DATE":null,"MEAN_ELEMENT_THEORY":"SGP4","LAUNCH_DATE":"2021-05-26","RCS_SIZE":"LARGE","APOAPSIS":"547.601","GP_ID":"229064647","REF_FRAME":"TEME","CENTER_NAME":"EARTH","TIME_SYSTEM":"UTC","COUNTRY_CODE":"US","OBJECT_TYPE":"PAYLOAD","MEAN_MOTION_DOT":"0.00029321","SEMIMAJOR_AXIS":"6925.161","TLE_LINE1":"1 48672U 21044AL  23087.81125669  .00029321  00000-0  19759-2 0  9996","ECCENTRICITY":"0.00008310","OBJECT_NAME":"STARLINK-2705","MEAN_ANOMALY":"279.0073","TLE_LINE2":"2 48672  53.0527 265.9096 0000831  81.1010 279.0073 15.06461248101536","MEAN_MOTION":"15.06461248","REV_AT_EPOCH":"10153","PERIAPSIS":"546.450","OBJECT_ID":"2021-044AL"},{"TLE_LINE1":"1 48673U 21044AM  23087.80757004  .00022127  00000-0  14976-2 0  9993","TIME_SYSTEM":"UTC","COUNTRY_CODE":"US","OBJECT_TYPE":"PAYLOAD","MEAN_MOTION_DOT":"0.00022127","SEMIMAJOR_AXIS":"6925.187","OBJECT_NAME":"STARLINK-2711","MEAN_ANOMALY":"262.9290","ECCENTRICITY":"0.00004160","TLE_LINE2":"2 48673  53.0546 265.9284 0000416  97.1747 262.9290 15.06452624101530","OBJECT_ID":"2021-044AM","MEAN_MOTION":"15.06452624","REV_AT_EPOCH":"10153","PERIAPSIS":"546.764","ARG_OF_PERICENTER":"97.1747","BSTAR":"0.00149760000000","CLASSIFICATION_TYPE":"U","FILE":"3873921","PERIOD":"95.589","RA_OF_ASC_NODE":"265.9284","EPHEMERIS_TYPE":"0","NORAD_CAT_ID":"48673","INCLINATION":"53.0546","ELEMENT_SET_NO":"999","SITE":"AFETR","EPOCH":"2023-03-28T19:22:54.051456","LAUNCH_DATE":"2021-05-26","RCS_SIZE":"LARGE","GP_ID":"229065398","APOAPSIS":"547.340","MEAN_MOTION_DDOT":"0.0000000000000","DECAY_DATE":null,"MEAN_ELEMENT_THEORY":"SGP4","CENTER_NAME":"EARTH","REF_FRAME":"TEME"},{"TIME_SYSTEM":"UTC","MEAN_MOTION_DOT":"0.00026553","COUNTRY_CODE":"US","OBJECT_TYPE":"PAYLOAD","SEMIMAJOR_AXIS":"6925.205","TLE_LINE1":"1 48674U 21044AN  23087.86928794  .00026553  00000-0  17925-2 0  9990","ECCENTRICITY":"0.00012640","OBJECT_NAME":"STARLINK-2712","MEAN_ANOMALY":"280.5861","TLE_LINE2":"2 48674  53.0513 265.6450 0001264  79.5271 280.5861 15.06446904101540","REV_AT_EPOCH":"10154","MEAN_MOTION":"15.06446904","PERIAPSIS":"546.194","OBJECT_ID":"2021-044AN","FILE":"3873921","PERIOD":"95.589","RA_OF_ASC_NODE":"265.6450","ARG_OF_PERICENTER":"79.5271","CLASSIFICATION_TYPE":"U","BSTAR":"0.00179250000000","ELEMENT_SET_NO":"999","SITE":"AFETR","EPOCH":"2023-03-28T20:51:46.478016","EPHEMERIS_TYPE":"0","NORAD_CAT_ID":"48674","INCLINATION":"53.0513","MEAN_MOTION_DDOT":"0.0000000000000","DECAY_DATE":null,"MEAN_ELEMENT_THEORY":"SGP4","LAUNCH_DATE":"2021-05-26","RCS_SIZE":"LARGE","APOAPSIS":"547.945","GP_ID":"229065649","CENTER_NAME":"EARTH","REF_FRAME":"TEME"},{"CENTER_NAME":"EARTH","REF_FRAME":"TEME","LAUNCH_DATE":"2021-05-26","RCS_SIZE":"LARGE","GP_ID":"229066378","APOAPSIS":"547.716","MEAN_MOTION_DDOT":"0.0000000000000","DECAY_DATE":null,"MEAN_ELEMENT_THEORY":"SGP4","EPHEMERIS_TYPE":"0","NORAD_CAT_ID":"48675","INCLINATION":"53.0530","SITE":"AFETR","ELEMENT_SET_NO":"999","EPOCH":"2023-03-28T19:12:18.109440","ARG_OF_PERICENTER":"69.8641","CLASSIFICATION_TYPE":"U","BSTAR":"0.00191320000000","FILE":"3873921","PERIOD":"95.590","RA_OF_ASC_NODE":"265.9612","OBJECT_ID":"2021-044AP","REV_AT_EPOCH":"10153","MEAN_MOTION":"15.06439634","PERIAPSIS":"546.468","TLE_LINE2":"2 48675  53.0530 265.9612 0000901  69.8641 290.2445 15.06439634101530","OBJECT_NAME":"STARLINK-2737","MEAN_ANOMALY":"290.2445","ECCENTRICITY":"0.00009010","TLE_LINE1":"1 48675U 21044AP  23087.80020960  .00028361  00000-0  19132-2 0  9994","TIME_SYSTEM":"UTC","OBJECT_TYPE":"PAYLOAD","COUNTRY_CODE":"US","MEAN_MOTION_DOT":"0.00028361","SEMIMAJOR_AXIS":"6925.227"}];
